NORAD_CAT_ID,OBJECT_NAME,OBJECT_TYPE,EPOCH,MEAN_MOTION,ECCENTRICITY,INCLINATION,RA_OF_ASC_NODE,ARG_OF_PERICENTER,MEAN_ANOMALY,BSTAR,MEAN_MOTION_DOT,MEAN_MOTION_DDOT,TLE_LINE0,TLE_LINE1,TLE_LINE2,SEMIMAJOR_AXIS,PERIOD,APOGEE,PERIGEE,DECAYED
55651.0,STARLINK-5506,PAYLOAD,2023-11-29 19:47:04,14.9832842,0.0002587,70.0006,119.4553,260.6335,99.4532,6.652e-05,7.01e-06,0.0,0 STARLINK-5506,1 55651U 23021Z   23333.82435724  .00000701  00000-0  66520-4 0  9990,2 55651  70.0006 119.4553 0002587 260.6335  99.4532 14.98328420 44036,6950.198,96.107,573.861,570.265,0.0
55651.0,STARLINK-5506,PAYLOAD,2023-11-30 19:49:05,14.98330038,0.0002687,70.0008,116.9307,276.9564,83.1289,4.2064e-05,4.09e-06,0.0,0 STARLINK-5506,1 55651U 23021Z   23334.82575866  .00000409  00000-0  42064-4 0  9995,2 55651  70.0008 116.9307 0002687 276.9564  83.1289 14.98330038 44185,6950.193,96.107,573.925,570.19,0.0
55651.0,STARLINK-5506,PAYLOAD,2023-12-01 19:51:06,14.98332382,0.0002544,70.0008,114.4049,269.0553,91.0314,3.2672e-05,2.97e-06,0.0,0 STARLINK-5506,1 55651U 23021Z   23335.82715562  .00000297  00000-0  32672-4 0  9994,2 55651  70.0008 114.4049 0002544 269.0553  91.0314 14.98332382 44332,6950.186,96.107,573.819,570.282,0.0
55651.0,STARLINK-5506,PAYLOAD,2023-12-02 13:28:35,14.98312894,0.0003265,70.0008,112.5548,205.3028,154.7972,-0.00022432,-2.767e-05,0.0,0 STARLINK-5506,1 55651U 23021Z   23336.56152259 -.00002767  00000-0 -22432-3 0  9992,2 55651  70.0008 112.5548 0003265 205.3028 154.7972 14.98312894 44744,6950.246,96.108,574.38,569.842,0.0
55651.0,STARLINK-5506,PAYLOAD,2023-12-02 18:17:01,14.98301685,0.0002264,70.0009,112.0485,266.8213,93.2687,-0.00030014,-3.669e-05,0.0,0 STARLINK-5506,1 55651U 23021Z   23336.76181745 -.00003669  00000-0 -30014-3 0  9993,2 55651  70.0009 112.0485 0002264 266.8213  93.2687 14.98301685 44472,6950.28,96.109,573.719,570.572,0.0
55651.0,STARLINK-5506,PAYLOAD,2023-12-03 11:54:29,14.98314342,0.0002915,69.9998,110.1962,266.7983,93.2842,-0.00022664,-2.795e-05,0.0,0 STARLINK-5506,1 55651U 23021Z   23337.49617355 -.00002795  00000-0 -22664-3 0  9996,2 55651  69.9998 110.1962 0002915 266.7983  93.2842 14.98314342 44580,6950.241,96.108,574.132,570.08,0.0
55651.0,STARLINK-5506,PAYLOAD,2023-12-03 13:30:37,14.98314251,0.0002879,69.9999,110.028,266.5177,93.5652,-0.00021995,-2.715e-05,0.0,0 STARLINK-5506,1 55651U 23021Z   23337.56293402 -.00002715  00000-0 -21995-3 0  9995,2 55651  69.9999 110.0280 0002879 266.5177  93.5652 14.98314251 44890,6950.242,96.108,574.108,570.106,0.0
55651.0,STARLINK-5506,PAYLOAD,2023-12-04 11:56:29,14.98329375,0.000277,69.9991,107.6693,258.2789,101.8059,-0.00018479,-2.297e-05,0.0,0 STARLINK-5506,1 55651U 23021Z   23338.49756659 -.00002297  00000-0 -18479-3 0  9994,2 55651  69.9991 107.6693 0002770 258.2789 101.8059 14.98329375 44739,6950.195,96.107,573.985,570.135,0.0
55651.0,STARLINK-5506,PAYLOAD,2023-12-04 13:32:37,14.98313559,0.0002585,70.0005,107.5028,253.7631,106.3243,0.00011101,1.231e-05,0.0,0 STARLINK-5506,1 55651U 23021Z   23338.56432763  .00001231  00000-0  11101-3 0  9999,2 55651  70.0005 107.5028 0002585 253.7631 106.3243 14.98313559 45046,6950.244,96.108,573.905,570.312,0.0
55651.0,STARLINK-5506,PAYLOAD,2023-12-04 18:21:01,14.98326894,0.0002574,70.0023,107.0006,215.331,144.7679,-2.8565e-06,-1.27e-06,0.0,0 STARLINK-5506,1 55651U 23021Z   23338.76460314 -.00000127  00000-0 -28565-5 0  9993,2 55651  70.0023 107.0006 0002574 215.3310 144.7679 14.98326894 45071,6950.202,96.107,573.856,570.279,0.0
55651.0,STARLINK-5506,PAYLOAD,2023-12-05 11:58:30,14.98302745,0.0002903,69.9988,105.1432,268.9317,91.1509,-9.2595e-05,-1.197e-05,0.0,0 STARLINK-5506,1 55651U 23021Z   23339.49896988 -.00001197  00000-0 -92595-4 0  9995,2 55651  69.9988 105.1432 0002903 268.9317  91.1509 14.98302745 44881,6950.277,96.109,574.16,570.125,0.0
55651.0,STARLINK-5506,PAYLOAD,2023-12-05 13:34:38,14.98308617,0.0002859,69.999,104.976,264.73,95.3533,-2.806e-05,-4.28e-06,0.0,0 STARLINK-5506,1 55651U 23021Z   23339.56572644 -.00000428  00000-0 -28060-4 0  9995,2 55651  69.9990 104.9760 0002859 264.7300  95.3533 14.98308617 45193,6950.259,96.108,574.111,570.137,0.0
55651.0,STARLINK-5506,PAYLOAD,2023-12-05 18:23:02,14.98314739,0.0003038,69.9993,104.473,264.0792,96.002,-2.2398e-05,-3.6e-06,0.0,0 STARLINK-5506,1 55651U 23021Z   23339.76600401 -.00000360  00000-0 -22398-4 0  9993,2 55651  69.9993 104.4730 0003038 264.0792  96.0020 14.98314739 44927,6950.24,96.108,574.217,569.994,0.0
55651.0,STARLINK-5506,PAYLOAD,2023-12-06 12:00:29,14.98342563,0.0002638,70.0002,102.62,236.6899,123.4007,7.7755e-05,8.35e-06,0.0,0 STARLINK-5506,1 55651U 23021Z   23340.50033735  .00000835  00000-0  77755-4 0  9999,2 55651  70.0002 102.6200 0002638 236.6899 123.4007 14.98342563 45030,6950.154,96.106,573.852,570.186,0.0
55651.0,STARLINK-5506,PAYLOAD,2023-12-06 13:36:42,14.98279023,0.0002727,69.9999,102.4518,242.424,117.6642,-0.00062365,-7.516e-05,0.0,0 STARLINK-5506,1 55651U 23021Z   23340.56715386 -.00007516  00000-0 -62365-3 0  9999,2 55651  69.9999 102.4518 0002727 242.4240 117.6642 14.98279023 45340,6950.351,96.11,574.111,570.32,0.0
55651.0,STARLINK-5506,PAYLOAD,2023-12-06 18:25:03,14.983205,0.0002703,69.9998,101.9465,261.3839,98.7014,-0.00015893,-1.988e-05,0.0,0 STARLINK-5506,1 55651U 23021Z   23340.76739892 -.00001988  00000-0 -15893-3 0  9990,2 55651  69.9998 101.9465 0002703 261.3839  98.7014 14.98320500 45071,6950.222,96.108,573.966,570.209,0.0
55651.0,STARLINK-5506,PAYLOAD,2023-12-07 12:02:31,14.98306269,0.0002761,69.9997,100.0963,267.4791,92.6052,8.7136e-05,9.46e-06,0.0,0 STARLINK-5506,1 55651U 23021Z   23341.50175558  .00000946  00000-0  87136-4 0  9997,2 55651  69.9997 100.0963 0002761 267.4791  92.6052 14.98306269 45487,6950.266,96.109,574.05,570.212,0.0
55651.0,STARLINK-5506,PAYLOAD,2023-12-07 18:27:04,14.98308866,0.0002869,69.9995,99.4226,267.4011,92.6819,7.5113e-05,8.03e-06,0.0,0 STARLINK-5506,1 55651U 23021Z   23341.76879728  .00000803  00000-0  75113-4 0  9999,2 55651  69.9995  99.4226 0002869 267.4011  92.6819 14.98308866 45220,6950.258,96.108,574.117,570.129,0.0
55651.0,STARLINK-5506,PAYLOAD,2023-12-08 12:04:32,14.98342443,0.0002819,70.0,97.572,271.6532,88.4304,-0.00029629,-3.628e-05,0.0,0 STARLINK-5506,1 55651U 23021Z   23342.50314936 -.00003628  00000-0 -29629-3 0  9997,2 55651  70.0000  97.5720 0002819 271.6532  88.4304 14.98342443 45331,6950.154,96.106,573.979,570.06,0.0
55651.0,STARLINK-5506,PAYLOAD,2023-12-08 18:29:04,14.98343791,0.0002771,70.0,96.8986,270.2301,89.854,-0.00026289,-3.229e-05,0.0,0 STARLINK-5506,1 55651U 23021Z   23342.77018610 -.00003229  00000-0 -26289-3 0  9992,2 55651  70.0000  96.8986 0002771 270.2301  89.8540 14.98343791 45674,6950.15,96.106,573.941,570.089,0.0
55651.0,STARLINK-5506,PAYLOAD,2023-12-09 12:06:36,14.98295769,0.0002629,69.9996,95.0466,235.5992,124.4919,-0.00017527,-2.182e-05,0.0,0 STARLINK-5506,1 55651U 23021Z   23343.50458979 -.00002182  00000-0 -17527-3 0  9992,2 55651  69.9996  95.0466 0002629 235.5992 124.4919 14.98295769 45487,6950.299,96.109,573.991,570.337,0.0
55651.0,STARLINK-5506,PAYLOAD,2023-12-09 18:31:07,14.98321449,0.0002865,69.9996,94.3731,267.7091,92.374,0.00011529,1.283e-05,0.0,0 STARLINK-5506,1 55651U 23021Z   23343.77160997  .00001283  00000-0  11529-3 0  9996,2 55651  69.9996  94.3731 0002865 267.7091  92.3740 14.98321449 45528,6950.219,96.108,574.076,570.093,0.0
55651.0,STARLINK-5506,PAYLOAD,2023-12-10 12:08:35,14.98334122,0.0003183,69.9992,92.5213,274.3223,85.7572,9.7285e-05,1.068e-05,0.0,0 STARLINK-5506,1 55651U 23021Z   23344.50596413  .00001068  00000-0  97285-4 0  9999,2 55651  69.9992  92.5213 0003183 274.3223  85.7572 14.98334122 45637,6950.18,96.107,574.257,569.833,0.0
55651.0,STARLINK-5506,PAYLOAD,2023-12-10 13:44:43,14.98335473,0.0003127,69.999,92.3519,274.9659,85.1143,0.00012037,1.344e-05,0.0,0 STARLINK-5506,1 55651U 23021Z   23344.57272245  .00001344  00000-0  12037-3 0  9998,2 55651  69.9990  92.3519 0003127 274.9659  85.1143 14.98335473 45941,6950.176,96.107,574.214,569.868,0.0
55651.0,STARLINK-5506,PAYLOAD,2023-12-10 16:56:59,14.98338359,0.0002783,70.0002,92.0181,268.9733,91.1108,0.00015275,1.73e-05,0.0,0 STARLINK-5506,1 55651U 23021Z   23344.70623931  .00001730  00000-0  15275-3 0  9991,2 55651  70.0002  92.0181 0002783 268.9733  91.1108 14.98338359 45969,6950.167,96.106,573.966,570.098,0.0
55651.0,STARLINK-5506,PAYLOAD,2023-12-11 12:10:36,14.98318797,0.0002918,70.0002,89.9977,266.598,93.4845,0.00049174,5.777e-05,0.0,0 STARLINK-5506,1 55651U 23021Z   23345.50736323  .00005777  00000-0  49174-3 0  9990,2 55651  70.0002  89.9977 0002918 266.5980  93.4845 14.98318797 45782,6950.228,96.108,574.121,570.064,0.0
55651.0,STARLINK-5506,PAYLOAD,2023-12-11 13:46:44,14.98319131,0.0003031,70.0003,89.8297,268.4725,91.6087,0.00049143,5.774e-05,0.0,0 STARLINK-5506,1 55651U 23021Z   23345.57412328  .00005774  00000-0  49143-3 0  9996,2 55651  70.0003  89.8297 0003031 268.4725  91.6087 14.98319131 46098,6950.227,96.108,574.198,569.985,0.0
55651.0,STARLINK-5506,PAYLOAD,2023-12-11 16:58:59,14.98336696,0.000292,70.0017,89.4939,262.6043,97.4784,0.0006559,7.743e-05,0.0,0 STARLINK-5506,1 55651U 23021Z   23345.70762861  .00007743  00000-0  65590-3 0  9993,2 55651  70.0017  89.4939 0002920 262.6043  97.4784 14.98336696 45819,6950.172,96.107,574.067,570.008,0.0
55651.0,STARLINK-5506,PAYLOAD,2023-12-12 12:12:37,14.98331399,0.0002537,70.001,87.4732,270.7828,89.304,-0.00014991,-1.881e-05,0.0,0 STARLINK-5506,1 55651U 23021Z   23346.50876351 -.00001881  00000-0 -14991-3 0  9990,2 55651  70.0010  87.4732 0002537 270.7828  89.3040 14.98331399 45939,6950.189,96.107,573.817,570.29,0.0
55651.0,STARLINK-5506,PAYLOAD,2023-12-12 13:48:45,14.98331503,0.0002224,70.0019,87.3062,260.0709,100.0199,-0.00015974,-1.998e-05,0.0,0 STARLINK-5506,1 55651U 23021Z   23346.57552373 -.00001998  00000-0 -15974-3 0  9993,2 55651  70.0019  87.3062 0002224 260.0709 100.0199 14.98331503 46244,6950.188,96.107,573.599,570.508,0.0
